CCSDS_OMM_VERS = 2.0
CREATION_DATE  = 
ORIGINATOR     = 

OBJECT_NAME    = SKYSAT-C19
OBJECT_ID      = 2020-057BS
CENTER_NAME    = EARTH
REF_FRAME      = TEME
TIME_SYSTEM    = UTC
MEAN_ELEMENT_THEORY = SGP/SGP4

EPOCH          = 2020-09-09T05:59:27.657888
MEAN_MOTION    = 15.75841101
ECCENTRICITY   = .0016585
INCLINATION    = 53.0003
RA_OF_ASC_NODE = 332.0171
ARG_OF_PERICENTER = 70.5480
MEAN_ANOMALY   = 289.7328

EPHEMERIS_TYPE = 0
CLASSIFICATION_TYPE = U
NORAD_CAT_ID   = 46235
ELEMENT_SET_NO = 999
REV_AT_EPOCH   = 307
BSTAR          = .58186E-4
MEAN_MOTION_DOT = 8.574E-5
MEAN_MOTION_DDOT = 0

CCSDS_OMM_VERS = 2.0
CREATION_DATE  = 
ORIGINATOR     = 

OBJECT_NAME    = FALCON 9 DEB
OBJECT_ID      = 2020-057BT
CENTER_NAME    = EARTH
REF_FRAME      = TEME
TIME_SYSTEM    = UTC
MEAN_ELEMENT_THEORY = SGP/SGP4

EPOCH          = 2020-09-09T04:43:52.631616
MEAN_MOTION    = 16.10072531
ECCENTRICITY   = .0070220
INCLINATION    = 52.9978
RA_OF_ASC_NODE = 330.1560
ARG_OF_PERICENTER = 122.0280
MEAN_ANOMALY   = 238.7600

EPHEMERIS_TYPE = 0
CLASSIFICATION_TYPE = U
NORAD_CAT_ID   = 46236
ELEMENT_SET_NO = 999
REV_AT_EPOCH   = 347
BSTAR          = .32101E-3
MEAN_MOTION_DOT = 4.60922E-3
MEAN_MOTION_DDOT = .11590E-4

CCSDS_OMM_VERS = 2.0
CREATION_DATE  = 
ORIGINATOR     = 

OBJECT_NAME    = SAOCOM 1B
OBJECT_ID      = 2020-059A
CENTER_NAME    = EARTH
REF_FRAME      = TEME
TIME_SYSTEM    = UTC
MEAN_ELEMENT_THEORY = SGP/SGP4

EPOCH          = 2020-09-09T05:41:59.828928
MEAN_MOTION    = 14.86393200
ECCENTRICITY   = .0004501
INCLINATION    = 97.8803
RA_OF_ASC_NODE = 76.9884
ARG_OF_PERICENTER = 138.2461
MEAN_ANOMALY   = 222.0642

EPHEMERIS_TYPE = 0
CLASSIFICATION_TYPE = U
NORAD_CAT_ID   = 46265
ELEMENT_SET_NO = 999
REV_AT_EPOCH   = 137
BSTAR          = .54017E-2
MEAN_MOTION_DOT = 4.7927E-4
MEAN_MOTION_DDOT = 0

CCSDS_OMM_VERS = 2.0
CREATION_DATE  = 
ORIGINATOR     = 

OBJECT_NAME    = GNOMES-1
OBJECT_ID      = 2020-059B
CENTER_NAME    = EARTH
REF_FRAME      = TEME
TIME_SYSTEM    = UTC
MEAN_ELEMENT_THEORY = SGP/SGP4

EPOCH          = 2020-09-09T00:38:51.493632
MEAN_MOTION    = 14.87885258
ECCENTRICITY   = .0006554
INCLINATION    = 97.8851
RA_OF_ASC_NODE = 76.8064
ARG_OF_PERICENTER = 110.4958
MEAN_ANOMALY   = 249.7031

EPHEMERIS_TYPE = 0
CLASSIFICATION_TYPE = U
NORAD_CAT_ID   = 46266
ELEMENT_SET_NO = 999
REV_AT_EPOCH   = 134
BSTAR          = .52437E-4
MEAN_MOTION_DOT = 4.25E-6
MEAN_MOTION_DDOT = 0

CCSDS_OMM_VERS = 2.0
CREATION_DATE  = 
ORIGINATOR     = 

OBJECT_NAME    = TYVAK-0172
OBJECT_ID      = 2020-059C
CENTER_NAME    = EARTH
REF_FRAME      = TEME
TIME_SYSTEM    = UTC
MEAN_ELEMENT_THEORY = SGP/SGP4

EPOCH          = 2020-09-09T00:36:25.104384
MEAN_MOTION    = 14.88166674
ECCENTRICITY   = .0007636
INCLINATION    = 97.8729
RA_OF_ASC_NODE = 76.7954
ARG_OF_PERICENTER = 115.8953
MEAN_ANOMALY   = 244.3119

EPHEMERIS_TYPE = 0
CLASSIFICATION_TYPE = U
NORAD_CAT_ID   = 46267
ELEMENT_SET_NO = 999
REV_AT_EPOCH   = 133
BSTAR          = .66658E-4
MEAN_MOTION_DOT = 5.59E-6
MEAN_MOTION_DDOT = 0

CCSDS_OMM_VERS = 2.0
CREATION_DATE  = 
ORIGINATOR     = 

OBJECT_NAME    = RLFL14
OBJECT_ID      = 2020-060A
CENTER_NAME    = EARTH
REF_FRAME      = TEME
TIME_SYSTEM    = UTC
MEAN_ELEMENT_THEORY = SGP/SGP4

EPOCH          = 2020-09-09T11:36:28.968768
MEAN_MOTION    = 15.09544892
ECCENTRICITY   = .0013223
INCLINATION    = 45.1011
RA_OF_ASC_NODE = 281.5400
ARG_OF_PERICENTER = 318.6273
MEAN_ANOMALY   = 41.3601

EPHEMERIS_TYPE = 0
CLASSIFICATION_TYPE = U
NORAD_CAT_ID   = 46268
ELEMENT_SET_NO = 999
REV_AT_EPOCH   = 141
BSTAR          = .50344E-5
MEAN_MOTION_DOT = -1.71E-6
MEAN_MOTION_DDOT = 0

CCSDS_OMM_VERS = 2.0
CREATION_DATE  = 
ORIGINATOR     = 

OBJECT_NAME    = CAPELLA-2
OBJECT_ID      = 2020-060B
CENTER_NAME    = EARTH
REF_FRAME      = TEME
TIME_SYSTEM    = UTC
MEAN_ELEMENT_THEORY = SGP/SGP4

EPOCH          = 2020-09-09T05:17:50.088768
MEAN_MOTION    = 15.09255259
ECCENTRICITY   = .0011149
INCLINATION    = 45.1027
RA_OF_ASC_NODE = 282.9588
ARG_OF_PERICENTER = 319.5010
MEAN_ANOMALY   = 40.5040

EPHEMERIS_TYPE = 0
CLASSIFICATION_TYPE = U
NORAD_CAT_ID   = 46269
ELEMENT_SET_NO = 999
REV_AT_EPOCH   = 137
BSTAR          = .32692E-4
MEAN_MOTION_DOT = 2.78E-6
MEAN_MOTION_DDOT = 0

CCSDS_OMM_VERS = 2.0
CREATION_DATE  = 
ORIGINATOR     = 

OBJECT_NAME    = ELECTRON R/B
OBJECT_ID      = 2020-060C
CENTER_NAME    = EARTH
REF_FRAME      = TEME
TIME_SYSTEM    = UTC
MEAN_ELEMENT_THEORY = SGP/SGP4

EPOCH          = 2020-09-09T11:12:56.388384
MEAN_MOTION    = 15.85313759
ECCENTRICITY   = .0211465
INCLINATION    = 45.0958
RA_OF_ASC_NODE = 276.3120
ARG_OF_PERICENTER = 312.9485
MEAN_ANOMALY   = 45.3853

EPHEMERIS_TYPE = 0
CLASSIFICATION_TYPE = U
NORAD_CAT_ID   = 46270
ELEMENT_SET_NO = 999
REV_AT_EPOCH   = 147
BSTAR          = .60327E-3
MEAN_MOTION_DOT = 1.102823E-2
MEAN_MOTION_DDOT = .92618E-5

CCSDS_OMM_VERS = 2.0
CREATION_DATE  = 
ORIGINATOR     = 

OBJECT_NAME    = NUSAT-6 (HYPATIA)
OBJECT_ID      = 2020-061A
CENTER_NAME    = EARTH
REF_FRAME      = TEME
TIME_SYSTEM    = UTC
MEAN_ELEMENT_THEORY = SGP/SGP4

EPOCH          = 2020-09-09T05:17:35.723904
MEAN_MOTION    = 15.15061182
ECCENTRICITY   = .0006114
INCLINATION    = 97.4681
RA_OF_ASC_NODE = 326.2049
ARG_OF_PERICENTER = 197.0317
MEAN_ANOMALY   = 163.0711

EPHEMERIS_TYPE = 0
CLASSIFICATION_TYPE = U
NORAD_CAT_ID   = 46272
ELEMENT_SET_NO = 999
REV_AT_EPOCH   = 92
BSTAR          = .22072E-4
MEAN_MOTION_DOT = 3.48E-6
MEAN_MOTION_DDOT = 0

CCSDS_OMM_VERS = 2.0
CREATION_DATE  = 
ORIGINATOR     = 

OBJECT_NAME    = ESAIL
OBJECT_ID      = 2020-061B
CENTER_NAME    = EARTH
REF_FRAME      = TEME
TIME_SYSTEM    = UTC
MEAN_ELEMENT_THEORY = SGP/SGP4

EPOCH          = 2020-09-09T05:17:01.858560
MEAN_MOTION    = 15.15158091
ECCENTRICITY   = .0005668
INCLINATION    = 97.4681
RA_OF_ASC_NODE = 326.2055
ARG_OF_PERICENTER = 197.4739
MEAN_ANOMALY   = 162.6299

EPHEMERIS_TYPE = 0
CLASSIFICATION_TYPE = U
NORAD_CAT_ID   = 46273
ELEMENT_SET_NO = 999
REV_AT_EPOCH   = 92
BSTAR          = .16656E-4
MEAN_MOTION_DOT = 2.47E-6
MEAN_MOTION_DDOT = 0

CCSDS_OMM_VERS = 2.0
CREATION_DATE  = 
ORIGINATOR     = 

OBJECT_NAME    = ION-MK01
OBJECT_ID      = 2020-061C
CENTER_NAME    = EARTH
REF_FRAME      = TEME
TIME_SYSTEM    = UTC
MEAN_ELEMENT_THEORY = SGP/SGP4

EPOCH          = 2020-09-09T05:16:37.573248
MEAN_MOTION    = 15.15227936
ECCENTRICITY   = .0005312
INCLINATION    = 97.4682
RA_OF_ASC_NODE = 326.2060
ARG_OF_PERICENTER = 197.3017
MEAN_ANOMALY   = 162.8036

EPHEMERIS_TYPE = 0
CLASSIFICATION_TYPE = U
NORAD_CAT_ID   = 46274
ELEMENT_SET_NO = 999
REV_AT_EPOCH   = 92
BSTAR          = .15474E-4
MEAN_MOTION_DOT = 2.25E-6
MEAN_MOTION_DDOT = 0

CCSDS_OMM_VERS = 2.0
CREATION_DATE  = 
ORIGINATOR     = 

OBJECT_NAME    = 2020-061D
OBJECT_ID      = 2020-061D
CENTER_NAME    = EARTH
REF_FRAME      = TEME
TIME_SYSTEM    = UTC
MEAN_ELEMENT_THEORY = SGP/SGP4

EPOCH          = 2020-09-09T05:12:24.582816
MEAN_MOTION    = 15.15957884
ECCENTRICITY   = .0000764
INCLINATION    = 97.4642
RA_OF_ASC_NODE = 326.2068
ARG_OF_PERICENTER = 135.5456
MEAN_ANOMALY   = 224.5838

EPHEMERIS_TYPE = 0
CLASSIFICATION_TYPE = U
NORAD_CAT_ID   = 46275
ELEMENT_SET_NO = 999
REV_AT_EPOCH   = 92
BSTAR          = .12413E-4
MEAN_MOTION_DOT = 1.73E-6
MEAN_MOTION_DDOT = 0

